{
    "CCSDS_OMM_VERS": "3.0",
    "COMMENT": "GENERATED VIA SPACE-TRACK.ORG API",
    "CREATION_DATE": "2025-11-24T07:36:20",
    "ORIGINATOR": "18 SPCS",
    "OBJECT_NAME": "BEIDOU 3 M28",
    "OBJECT_ID": "2023-207A",
    "CENTER_NAME": "EARTH",
    "REF_FRAME": "TEME",
    "TIME_SYSTEM": "UTC",
    "MEAN_ELEMENT_THEORY": "SGP4",
    "EPOCH": "2025-11-24T04:21:20.560608",
    "MEAN_MOTION": "1.86229775",
    "ECCENTRICITY": "0.00016740",
    "INCLINATION": "55.5684",
    "RA_OF_ASC_NODE": "69.2301",
    "ARG_OF_PERICENTER": "259.1179",
    "MEAN_ANOMALY": "100.8694",
    "EPHEMERIS_TYPE": "0",
    "CLASSIFICATION_TYPE": "U",
    "NORAD_CAT_ID": "58654",
    "ELEMENT_SET_NO": "999",
    "REV_AT_EPOCH": "1302",
    "BSTAR": "0.00000000000000",
    "MEAN_MOTION_DOT": "-0.00000024",
    "MEAN_MOTION_DDOT": "0.0000000000000",
    "SEMIMAJOR_AXIS": "27906.311",
    "PERIOD": "773.238",
    "APOAPSIS": "21532.847",
    "PERIAPSIS": "21523.504",
    "OBJECT_TYPE": "PAYLOAD",
    "RCS_SIZE": "LARGE",
    "COUNTRY_CODE": "PRC",
    "LAUNCH_DATE": "2023-12-26",
    "SITE": "XSC",
    "DECAY_DATE": null,
    "FILE": "4897269",
    "GP_ID": "303374589",
    "TLE_LINE0": "0 BEIDOU 3 M28",
    "TLE_LINE1": "1 58654U 23207A   25328.18148797 -.00000024  00000-0  00000+0 0  9993",
    "TLE_LINE2": "2 58654  55.5684  69.2301 0001674 259.1179 100.8694  1.86229775 13027"
}